{"type": "FeatureCollection", "features": [ {"type": "Feature", "properties": {"norad_id": 28649, "name": "IRS-P5 (CARTOSAT-1)", "group": "resource", "lat": -76.49407497663331, "lon": 57.37108366590218, "alt_km": 604.1956950133963, "timestamp": "2025-12-23T22:42:32.634523+00:00", "meta": {"OBJECT_NAME": "IRS-P5 (CARTOSAT-1)", "OBJECT_ID": "2005-017A", "EPOCH": "2025-12-23T02:06:56.284416", "MEAN_MOTION": 14.90437763, "ECCENTRICITY": 6.18e-05, "INCLINATION": 97.5483, "RA_OF_ASC_NODE": 23.0421, "ARG_OF_PERICENTER": 56.4975, "MEAN_ANOMALY": 303.6302, "EPHEMERIS_TYPE": 0, "CLASSIFICATION_TYPE": "U", "NORAD_CAT_ID": 28649, "ELEMENT_SET_NO": 999, "REV_AT_EPOCH": 11758, "BSTAR": 0.00016366764, "MEAN_MOTION_DOT": 1.543e-05, "MEAN_MOTION_DDOT": 0}, "tle": {"line1": "1 28649U 05017A   25357.08815144  .00001543  00000+0  16367-3 0  9993", "line2": "2 28649  97.5483  23.0421 0000618  56.4975 303.6302 14.90437763117583"}}, "geometry": {"type": "Point", "coordinates": [57.37108366590218, -76.49407497663331]}}, {"type": "Feature", "properties": {"norad_id": 28893, "name": "SINAH 1", "group": "resource", "lat": -68.89762489399035, "lon": 148.64849662038753, "alt_km": 698.6648752022256, "timestamp": "2025-12-23T22:42:32.634534+00:00", "meta": {"OBJECT_NAME": "SINAH 1", "OBJECT_ID": "2005-043D", "EPOCH": "2025-12-23T06:37:40.577376", "MEAN_MOTION": 14.63973022, "ECCENTRICITY": 0.00156955, "INCLINATION": 98.2609, "RA_OF_ASC_NODE": 125.8619, "ARG_OF_PERICENTER": 106.2589, "MEAN_ANOMALY": 254.0341, "EPHEMERIS_TYPE": 0, "CLASSIFICATION_TYPE": "U", "NORAD_CAT_ID": 28893, "ELEMENT_SET_NO": 999, "REV_AT_EPOCH": 7478, "BSTAR": 8.7326229e-05, "MEAN_MOTION_DOT": 4.09e-06, "MEAN_MOTION_DDOT": 0}, "tle": {"line1": "1 28893U 05043D   25357.27616409  .00000409  00000+0  87326-4 0  9991", "line2": "2 28893  98.2609 125.8619 0015695 106.2589 254.0341 14.63973022 74787"}}, "geometry": {"type": "Point", "coordinates": [148.64849662038753, -68.89762489399035]}}, {"type": "Feature", "properties": {"norad_id": 29079, "name": "EROS B", "group": "resource", "lat": -69.13623444777375, "lon": -84.70384971641765, "alt_km": 359.46570119193075, "timestamp": "2025-12-23T22:42:32.634545+00:00", "meta": {"OBJECT_NAME": "EROS B", "OBJECT_ID": "2006-014A", "EPOCH": "2025-12-23T07:53:40.633728", "MEAN_MOTION": 15.71626082, "ECCENTRICITY": 0.00040283, "INCLINATION": 97.3464, "RA_OF_ASC_NODE": 114.4326, "ARG_OF_PERICENTER": 311.2256, "MEAN_ANOMALY": 48.8659, "EPHEMERIS_TYPE": 0, "CLASSIFICATION_TYPE": "U", "NORAD_CAT_ID": 29079, "ELEMENT_SET_NO": 999, "REV_AT_EPOCH": 9246, "BSTAR": 0.0013773708, "MEAN_MOTION_DOT": 0.0018027, "MEAN_MOTION_DDOT": 0}, "tle": {"line1": "1 29079U 06014A   25357.32894252  .00180270  00000+0  13774-2 0  9996", "line2": "2 29079  97.3464 114.4326 0004028 311.2256  48.8659 15.71626082 92466"}}, "geometry": {"type": "Point", "coordinates": [-84.70384971641765, -69.13623444777375]}}, {"type": "Feature", "properties": {"norad_id": 29228, "name": "RESURS-DK 1", "group": "resource", "lat": 15.082319974953524, "lon": 78.53132942674723, "alt_km": 532.6242509348631, "timestamp": "2025-12-23T22:42:32.634556+00:00", "meta": {"OBJECT_NAME": "RESURS-DK 1", "OBJECT_ID": "2006-021A", "EPOCH": "2025-12-22T14:53:15.203040", "MEAN_MOTION": 15.12212397, "ECCENTRICITY": 0.00068623, "INCLINATION": 69.9337, "RA_OF_ASC_NODE": 76.3031, "ARG_OF_PERICENTER": 250.1947, "MEAN_ANOMALY": 109.8479, "EPHEMERIS_TYPE": 0, "CLASSIFICATION_TYPE": "U", "NORAD_CAT_ID": 29228, "ELEMENT_SET_NO": 999, "REV_AT_EPOCH": 7587, "BSTAR": 0.00016259773, "MEAN_MOTION_DOT": 2.709e-05, "MEAN_MOTION_DDOT": 0}, "tle": {"line1": "1 29228U 06021A   25356.62031485  .00002709  00000+0  16260-3 0  9997", "line2": "2 29228  69.9337  76.3031 0006862 250.1947 109.8479 15.12212397 75870"}}, "geometry": {"type": "Point", "coordinates": [78.53132942674723, 15.082319974953524]}}, {"type": "Feature", "properties": {"norad_id": 29268, "name": "ARIRANG-2 (KOMPSAT-2)", "group": "resource", "lat": -35.554353322283426, "lon": 0.231355795277162, "alt_km": 679.6415144495804, "timestamp": "2025-12-23T22:42:32.634567+00:00", "meta": {"OBJECT_NAME": "ARIRANG-2 (KOMPSAT-2)", "OBJECT_ID": "2006-031A", "EPOCH": "2025-12-23T07:32:09.236256", "MEAN_MOTION": 14.64501358, "ECCENTRICITY": 0.00131296, "INCLINATION": 97.8253, "RA_OF_ASC_NODE": 185.2711, "ARG_OF_PERICENTER": 272.7512, "MEAN_ANOMALY": 212.0459, "EPHEMERIS_TYPE": 0, "CLASSIFICATION_TYPE": "U", "NORAD_CAT_ID": 29268, "ELEMENT_SET_NO": 999, "REV_AT_EPOCH": 3573, "BSTAR": 3.0448113e-05, "MEAN_MOTION_DOT": 1.16e-06, "MEAN_MOTION_DDOT": 0}, "tle": {"line1": "1 29268U 06031A   25357.31399579  .00000116  00000+0  30448-4 0  9995", "line2": "2 29268  97.8253 185.2711 0013129 272.7512 212.0459 14.64501358 35738"}}, "geometry": {"type": "Point", "coordinates": [0.231355795277162, -35.554353322283426]}}, {"type": "Feature", "properties": {"norad_id": 29709, "name": "LAPAN-TUBSAT", "group": "resource", "lat": -73.88585579105742, "lon": 17.97383996337596, "alt_km": 622.9287854623926, "timestamp": "2025-12-23T22:42:32.634578+00:00", "meta": {"OBJECT_NAME": "LAPAN-TUBSAT", "OBJECT_ID": "2007-001A", "EPOCH": "2025-12-23T06:53:12.442848", "MEAN_MOTION": 14.85688572, "ECCENTRICITY": 0.00133595, "INCLINATION": 98.1259, "RA_OF_ASC_NODE": 347.6604, "ARG_OF_PERICENTER": 42.924, "MEAN_ANOMALY": 317.3014, "EPHEMERIS_TYPE": 0, "CLASSIFICATION_TYPE": "U", "NORAD_CAT_ID": 29709, "ELEMENT_SET_NO": 999, "REV_AT_EPOCH": 2503, "BSTAR": 0.00015946589, "MEAN_MOTION_DOT": 1.327e-05, "MEAN_MOTION_DDOT": 0}, "tle": {"line1": "1 29709U 07001A   25357.28694957  .00001327  00000+0  15947-3 0  9998", "line2": "2 29709  98.1259 347.6604 0013359  42.9240 317.3014 14.85688572 25038"}}, "geometry": {"type": "Point", "coordinates": [17.97383996337596, -73.88585579105742]}}, {"type": "Feature", "properties": {"norad_id": 31113, "name": "HAIYANG-1B", "group": "resource", "lat": 53.656909134796706, "lon": 173.25239390993784, "alt_km": 788.2527095303012, "timestamp": "2025-12-23T22:42:32.634588+00:00", "meta": {"OBJECT_NAME": "HAIYANG-1B", "OBJECT_ID": "2007-010A", "EPOCH": "2025-12-23T05:20:38.753664", "MEAN_MOTION": 14.30968284, "ECCENTRICITY": 0.00137103, "INCLINATION": 98.3327, "RA_OF_ASC_NODE": 341.0682, "ARG_OF_PERICENTER": 8.0626, "MEAN_ANOMALY": 352.0775, "EPHEMERIS_TYPE": 0, "CLASSIFICATION_TYPE": "U", "NORAD_CAT_ID": 31113, "ELEMENT_SET_NO": 999, "REV_AT_EPOCH": 97546, "BSTAR": 5.0548299e-05, "MEAN_MOTION_DOT": 9.1e-07, "MEAN_MOTION_DDOT": 0}, "tle": {"line1": "1 31113U 07010A   25357.22267076  .00000091  00000+0  50548-4 0  9996", "line2": "2 31113  98.3327 341.0682 0013710   8.0626 352.0775 14.30968284975466"}}, "geometry": {"type": "Point", "coordinates": [173.25239390993784, 53.656909134796706]}}, {"type": "Feature", "properties": {"norad_id": 31598, "name": "COSMO-SKYMED 1", "group": "resource", "lat": -70.47078498645813, "lon": -153.58390561444205, "alt_km": 587.8947455728157, "timestamp": "2025-12-23T22:42:32.634599+00:00", "meta": {"OBJECT_NAME": "COSMO-SKYMED 1", "OBJECT_ID": "2007-023A", "EPOCH": "2025-12-23T06:58:35.496768", "MEAN_MOTION": 14.95842337, "ECCENTRICITY": 0.00014289, "INCLINATION": 97.884, "RA_OF_ASC_NODE": 182.7596, "ARG_OF_PERICENTER": 79.8006, "MEAN_ANOMALY": 280.3375, "EPHEMERIS_TYPE": 0, "CLASSIFICATION_TYPE": "U", "NORAD_CAT_ID": 31598, "ELEMENT_SET_NO": 999, "REV_AT_EPOCH": 348, "BSTAR": 0.0003005743, "MEAN_MOTION_DOT": 3.299e-05, "MEAN_MOTION_DDOT": 0}, "tle": {"line1": "1 31598U 07023A   25357.29068862  .00003299  00000+0  30057-3 0  9991", "line2": "2 31598  97.8840 182.7596 0001428  79.8006 280.3375 14.95842337  3486"}}, "geometry": {"type": "Point", "coordinates": [-153.58390561444205, -70.47078498645813]}}, {"type": "Feature", "properties": {"norad_id": 31698, "name": "TERRASAR-X", "group": "resource", "lat": 15.870830476576518, "lon": -174.70554781045664, "alt_km": 508.9533041556879, "timestamp": "2025-12-23T22:42:32.634609+00:00", "meta": {"OBJECT_NAME": "TERRASAR-X", "OBJECT_ID": "2007-026A", "EPOCH": "2025-12-22T11:12:42.874560", "MEAN_MOTION": 15.19156937, "ECCENTRICITY": 0.00019029, "INCLINATION": 97.4451, "RA_OF_ASC_NODE": 1.7062, "ARG_OF_PERICENTER": 89.1914, "MEAN_ANOMALY": 270.9539, "EPHEMERIS_TYPE": 0, "CLASSIFICATION_TYPE": "U", "NORAD_CAT_ID": 31698, "ELEMENT_SET_NO": 999, "REV_AT_EPOCH": 2639, "BSTAR": 3.1918703e-05, "MEAN_MOTION_DOT": 6.03e-06, "MEAN_MOTION_DDOT": 0}, "tle": {"line1": "1 31698U 07026A   25356.46716290  .00000603  00000+0  31919-4 0  9993", "line2": "2 31698  97.4451   1.7062 0001902  89.1914 270.9539 15.19156937 26391"}}, "geometry": {"type": "Point", "coordinates": [-174.70554781045664, 15.870830476576518]}}, {"type": "Feature", "properties": {"norad_id": 32060, "name": "WORLDVIEW-1 (WV-1)", "group": "resource", "lat": 17.45433983154015, "lon": 112.92759987814901, "alt_km": 492.4121985426509, "timestamp": "2025-12-23T22:42:32.634620+00:00", "meta": {"OBJECT_NAME": "WORLDVIEW-1 (WV-1)", "OBJECT_ID": "2007-041A", "EPOCH": "2025-12-23T05:17:50.368704", "MEAN_MOTION": 15.23921594, "ECCENTRICITY": 0.00032781, "INCLINATION": 97.3827, "RA_OF_ASC_NODE": 114.5499, "ARG_OF_PERICENTER": 1.9713, "MEAN_ANOMALY": 358.1537, "EPHEMERIS_TYPE": 0, "CLASSIFICATION_TYPE": "U", "NORAD_CAT_ID": 32060, "ELEMENT_SET_NO": 999, "REV_AT_EPOCH": 1607, "BSTAR": 0.00036124565, "MEAN_MOTION_DOT": 8.663e-05, "MEAN_MOTION_DDOT": 0}, "tle": {"line1": "1 32060U 07041A   25357.22072186  .00008663  00000+0  36125-3 0  9995", "line2": "2 32060  97.3827 114.5499 0003278   1.9713 358.1537 15.23921594 16070"}}, "geometry": {"type": "Point", "coordinates": [112.92759987814901, 17.45433983154015]}}]}